LIME                    
1 62648U 25009AR  26068.73906781  .00013254  00000+0  47723-3 0  9995
2 62648  97.3985 151.4831 0001635  35.9029 324.2320 15.28703313 63766
STARLINK-35515          
1 66488U 25263D   26068.11839245  .00042838  00000+0  15562-2 0  9990
2 66488  43.0044 353.7399 0001758 261.7226  98.3426 15.27601008 18815
